STARLINK-31411          
1 59182U 24045E   26068.09415347 -.00000134  00000+0  46406-5 0  9998
2 59182  43.0010  95.6172 0001032 269.9510  90.1224 15.27572093113074
TROLL                   
1 62658U 25009BB  26068.22522958  .00013174  00000+0  48220-3 0  9994
2 62658  97.3932 150.7169 0001816  59.1850 300.9568 15.28164315118170
